*******************************************************************************
JPL/HORIZONS           Shoemaker-Levy 9 (D/1993 F2-W)      2023-May-07 20:07:07
Rec #:90002151 (+COV)           Soln.date: -                  n.a. (span: n.a.)
 
IAU76/J2000 helio. ecliptic osc. elements (au, days, deg., period=Julian yrs):
 
  EPOCH=  2449480.5 ! 1994-May-08.0000000 (TDB)    RMSW= n.a.
   EC= .2042822622598208   QR= 5.378907764694635   TP= 2449444.1398832458
   OM= 221.0772132764814   W= 355.0561377415564    IN= 5.758369877050352
   A= 6.759818852311391    MA= 2.039044744576161   ADIST= 8.140729939928148
   PER= 17.575625466122    N= .056079158           ANGMOM= .043781701
   DAN= 5.3823             DDN= 8.132960000000001  L= 216.1581757
   B= -.4954254            MOID= 4.3723402         TP= 1994-Apr-01.6398832458
 
Comet physical (GM= km^3/s^2; RAD= km):
   GM= n.a.                RAD= n.a.
   M1=  n.a.     M2=  n.a.     k1= n.a.    k2= n.a.     PHCOF= n.a.
 
COMET comments 
1: soln ref.= JPL#W52
2: Valid 1992-Jul-15_00:00 to 1994-Jul-22_08:05 UTC ERT
*******************************************************************************

  
  
  

*******************************************************************************
Ephemeris / WWW_USER Sun May  7 20:07:07 2023 Pasadena, USA      / Horizons
*******************************************************************************
Target body name: Shoemaker-Levy 9 (D/1993 F2-W)  {source: DASTCOM}
Center body name: Jupiter (599)                   {source: jup365_merged}
Center-site name: BODY CENTER
*******************************************************************************
Start time      : A.D. 1994-Jul-10 00:00:00.0000 TDB
Stop  time      : A.D. 1994-Jul-22 08:05:00.0000 TDB
Step-size       : 15 minutes
*******************************************************************************
Center geodetic : 0.0, 0.0, 0.0                   {W-lon(deg),Lat(deg),Alt(km)}
Center cylindric: 0.0, 0.0, 0.0                   {W-lon(deg),Dxy(km),Dz(km)}
Center radii    : 71492.0, 71492.0, 66854.0 km    {Equator_a, b, pole_c}
Small perturbers: Yes                             {source: SB441-N16}
Output units    : KM-S
Calendar mode   : Mixed Julian/Gregorian
Output type     : GEOMETRIC cartesian states
Output format   : 1 (position only)
Reference frame : Ecliptic of J2000.0
*******************************************************************************
Initial IAU76/J2000 heliocentric ecliptic osculating elements (au, days, deg.):
  EPOCH=  2449480.5 ! 1994-May-08.0000000 (TDB)    RMSW= n.a.                  
   EC= .2042822622598208   QR= 5.378907764694635   TP= 2449444.1398832458      
   OM= 221.0772132764814   W= 355.0561377415564    IN= 5.758369877050352       
  Equivalent ICRF heliocentric cartesian coordinates (au, au/d):
   X=-4.163800340285838E+00  Y=-3.119461368160859E+00  Z=-1.370850383290140E+00
  VX= 5.066753795416017E-03 VY=-6.118899420140993E-03 VZ=-1.763674944993409E-03
Comet physical (GM= km^3/s^2; RAD= km):                                        
   GM= n.a.                RAD= n.a.                                           
   M1=  n.a.     M2=  n.a.     k1= n.a.    k2= n.a.     PHCOF= n.a.            
*******************************************************************************
            JDTDB,            Calendar Date (TDB),                      X,                      Y,                      Z,
**************************************************************************************************************************
$$SOE
2449553.791666667, A.D. 1994-Jul-20 07:00:00.0000, -3.295196314846277E+05,  1.370606019386065E+06, -2.111795826533210E+06,
2449553.802083333, A.D. 1994-Jul-20 07:15:00.0000, -3.279905678466558E+05,  1.365107868366176E+06, -2.105110465618170E+06,
2449553.812500000, A.D. 1994-Jul-20 07:30:00.0000, -3.264594025173187E+05,  1.359601072797777E+06, -2.098411767189782E+06,
2449553.822916667, A.D. 1994-Jul-20 07:45:00.0000, -3.249261238554716E+05,  1.354085578572992E+06, -2.091699634912454E+06,
2449553.833333333, A.D. 1994-Jul-20 08:00:00.0000, -3.233907201303244E+05,  1.348561330944570E+06, -2.084973971239516E+06,
2449553.843750000, A.D. 1994-Jul-20 08:15:00.0000, -3.218531795194149E+05,  1.343028274512635E+06, -2.078234677391034E+06,
2449553.854166667, A.D. 1994-Jul-20 08:30:00.0000, -3.203134901065826E+05,  1.337486353213922E+06, -2.071481653331898E+06,
2449553.864583333, A.D. 1994-Jul-20 08:45:00.0000, -3.187716398785114E+05,  1.331935510309193E+06, -2.064714797748985E+06,
2449553.875000000, A.D. 1994-Jul-20 09:00:00.0000, -3.172276167235374E+05,  1.326375688371066E+06, -2.057934008027694E+06,
2449553.885416667, A.D. 1994-Jul-20 09:15:00.0000, -3.156814084274769E+05,  1.320806829270655E+06, -2.051139180228223E+06,
2449553.895833333, A.D. 1994-Jul-20 09:30:00.0000, -3.141330026724339E+05,  1.315228874166328E+06, -2.044330209061139E+06,
2449553.906250000, A.D. 1994-Jul-20 09:45:00.0000, -3.125823870333433E+05,  1.309641763488953E+06, -2.037506987862079E+06,
2449553.916666667, A.D. 1994-Jul-20 10:00:00.0000, -3.110295489746332E+05,  1.304045436930254E+06, -2.030669408566755E+06,
2449553.927083333, A.D. 1994-Jul-20 10:15:00.0000, -3.094744758489132E+05,  1.298439833427764E+06, -2.023817361683933E+06,
2449553.937500000, A.D. 1994-Jul-20 10:30:00.0000, -3.079171548918486E+05,  1.292824891152245E+06, -2.016950736268999E+06,
2449553.947916667, A.D. 1994-Jul-20 10:45:00.0000, -3.063575732208490E+05,  1.287200547492791E+06, -2.010069419896286E+06,
2449553.958333333, A.D. 1994-Jul-20 11:00:00.0000, -3.047957178308964E+05,  1.281566739043582E+06, -2.003173298630884E+06,
2449553.968750000, A.D. 1994-Jul-20 11:15:00.0000, -3.032315755918026E+05,  1.275923401588162E+06, -1.996262256999580E+06,
2449553.979166667, A.D. 1994-Jul-20 11:30:00.0000, -3.016651332442760E+05,  1.270270470084944E+06, -1.989336177961046E+06,
2449553.989583333, A.D. 1994-Jul-20 11:45:00.0000, -3.000963773976564E+05,  1.264607878652728E+06, -1.982394942876020E+06,
2449554.000000000, A.D. 1994-Jul-20 12:00:00.0000, -2.985252945247889E+05,  1.258935560554501E+06, -1.975438431475426E+06,
2449554.010416667, A.D. 1994-Jul-20 12:15:00.0000, -2.969518709601164E+05,  1.253253448181719E+06, -1.968466521828618E+06,
2449554.020833333, A.D. 1994-Jul-20 12:30:00.0000, -2.953760928946733E+05,  1.247561473038560E+06, -1.961479090310758E+06,
2449554.031250000, A.D. 1994-Jul-20 12:45:00.0000, -2.937979463737011E+05,  1.241859565725595E+06, -1.954476011569165E+06,
2449554.041666667, A.D. 1994-Jul-20 13:00:00.0000, -2.922174172912836E+05,  1.236147655922404E+06, -1.947457158488172E+06,
2449554.052083333, A.D. 1994-Jul-20 13:15:00.0000, -2.906344913877249E+05,  1.230425672371355E+06, -1.940422402154643E+06,
2449554.062500000, A.D. 1994-Jul-20 13:30:00.0000, -2.890491542451382E+05,  1.224693542859547E+06, -1.933371611821071E+06,
2449554.072916667, A.D. 1994-Jul-20 13:45:00.0000, -2.874613912829161E+05,  1.218951194201374E+06, -1.926304654868201E+06,
2449554.083333333, A.D. 1994-Jul-20 14:00:00.0000, -2.858711877545118E+05,  1.213198552219871E+06, -1.919221396767123E+06,
2449554.093750000, A.D. 1994-Jul-20 14:15:00.0000, -2.842785287425518E+05,  1.207435541728502E+06, -1.912121701039479E+06,
2449554.104166667, A.D. 1994-Jul-20 14:30:00.0000, -2.826833991546631E+05,  1.201662086512392E+06, -1.905005429217718E+06,
2449554.114583333, A.D. 1994-Jul-20 14:45:00.0000, -2.810857837194204E+05,  1.195878109308304E+06, -1.897872440802895E+06,
2449554.125000000, A.D. 1994-Jul-20 15:00:00.0000, -2.794856669811010E+05,  1.190083531784952E+06, -1.890722593222550E+06,
2449554.135416667, A.D. 1994-Jul-20 15:15:00.0000, -2.778830332963467E+05,  1.184278274523276E+06, -1.883555741786906E+06,
2449554.145833333, A.D. 1994-Jul-20 15:30:00.0000, -2.762778668280840E+05,  1.178462256994688E+06, -1.876371739643746E+06,
2449554.156250000, A.D. 1994-Jul-20 15:45:00.0000, -2.746701515424252E+05,  1.172635397540947E+06, -1.869170437732524E+06,
2449554.166666667, A.D. 1994-Jul-20 16:00:00.0000, -2.730598712018728E+05,  1.166797613351620E+06, -1.861951684736556E+06,
2449554.177083333, A.D. 1994-Jul-20 16:15:00.0000, -2.714470093629360E+05,  1.160948820441652E+06, -1.854715327034059E+06,
2449554.187500000, A.D. 1994-Jul-20 16:30:00.0000, -2.698315493685007E+05,  1.155088933629894E+06, -1.847461208648785E+06,
2449554.197916667, A.D. 1994-Jul-20 16:45:00.0000, -2.682134743448496E+05,  1.149217866513874E+06, -1.840189171197316E+06,
2449554.208333333, A.D. 1994-Jul-20 17:00:00.0000, -2.665927671959400E+05,  1.143335531447842E+06, -1.832899053836924E+06,
2449554.218750000, A.D. 1994-Jul-20 17:15:00.0000, -2.649694105968475E+05,  1.137441839516490E+06, -1.825590693210198E+06,
2449554.229166667, A.D. 1994-Jul-20 17:30:00.0000, -2.633433869906664E+05,  1.131536700510987E+06, -1.818263923389437E+06,
2449554.239583333, A.D. 1994-Jul-20 17:45:00.0000, -2.617146785813570E+05,  1.125620022903199E+06, -1.810918575818340E+06,
2449554.250000000, A.D. 1994-Jul-20 18:00:00.0000, -2.600832673293352E+05,  1.119691713818527E+06, -1.803554479252968E+06,
2449554.260416667, A.D. 1994-Jul-20 18:15:00.0000, -2.584491349450350E+05,  1.113751679010016E+06, -1.796171459700106E+06,
2449554.270833333, A.D. 1994-Jul-20 18:30:00.0000, -2.568122628834248E+05,  1.107799822829149E+06, -1.788769340354252E+06,
2449554.281250000, A.D. 1994-Jul-20 18:45:00.0000, -2.551726323391199E+05,  1.101836048198747E+06, -1.781347941532759E+06,
2449554.291666667, A.D. 1994-Jul-20 19:00:00.0000, -2.535302242391109E+05,  1.095860256582357E+06, -1.773907080608576E+06,
2449554.302083333, A.D. 1994-Jul-20 19:15:00.0000, -2.518850192375183E+05,  1.089872347955470E+06, -1.766446571941801E+06,
2449554.312500000, A.D. 1994-Jul-20 19:30:00.0000, -2.502369977092743E+05,  1.083872220774061E+06, -1.758966226808062E+06,
2449554.322916667, A.D. 1994-Jul-20 19:45:00.0000, -2.485861397447586E+05,  1.077859771942738E+06, -1.751465853325753E+06,
